IRIDIUM 112             
1 41925U 17003J   23268.74608951  .00000449  00000+0  15308-3 0  9999
2 41925  86.3992 144.3600 0002173  91.1904 268.9541 14.34220040350592
IRIDIUM 111             
1 41926U 17003K   23268.73340741  .00000451  00000+0  15390-3 0  9993
2 41926  86.3995 144.4138 0002277  77.4698 282.6752 14.34219478350573
IRIDIUM 113             
1 42803U 17039A   23268.92267776  .00000016  00000+0 -14822-5 0  9993
2 42803  86.4031  18.0579 0002305  92.2792 267.8668 14.34215147328538
IRIDIUM 123             
1 42804U 17039B   23268.82461865  .00000034  00000+0  52431-5 0  9995
2 42804  86.3966  49.5960 0002339  93.1895 266.9569 14.34216004327283
IRIDIUM 120             
1 42805U 17039C   23268.84655856  .00000654  00000+0  22661-3 0  9991
2 42805  86.4018  18.0020 0002070  90.7581 269.3852 14.34223100328512
IRIDIUM 115             
1 42806U 17039D   23268.87704499  .00000846  00000+0  24516-3 0  9997
2 42806  86.4554  17.9766 0002366  87.0504 273.0968 14.43329968330708
IRIDIUM 118             
1 42807U 17039E   23268.36795158  .00000181  00000+0  57394-4 0  9997
2 42807  86.3968  49.7896 0002079  90.8417 269.3017 14.34218913327212
IRIDIUM 117             
1 42808U 17039F   23268.94512391  .00000592  00000+0  20424-3 0  9997
2 42808  86.3966  49.5149 0002131  90.4760 269.6680 14.34221227327330
